CCSDS_OMM_VERS = 2.0
CREATION_DATE  = 
ORIGINATOR     = 

OBJECT_NAME    = ISS (ZARYA)
OBJECT_ID      = 1998-067A
CENTER_NAME    = EARTH
REF_FRAME      = TEME
TIME_SYSTEM    = UTC
MEAN_ELEMENT_THEORY = SGP/SGP4

EPOCH          = 2026-03-08T17:44:01.330656
MEAN_MOTION    = 15.48531098
ECCENTRICITY   = .00080508
INCLINATION    = 51.6319
RA_OF_ASC_NODE = 77.0569
ARG_OF_PERICENTER = 171.0721
MEAN_ANOMALY   = 189.0412

EPHEMERIS_TYPE = 0
CLASSIFICATION_TYPE = U
NORAD_CAT_ID   = 25544
ELEMENT_SET_NO = 999
REV_AT_EPOCH   = 55618
BSTAR          = .18226947E-3
MEAN_MOTION_DOT = .9449E-4
MEAN_MOTION_DDOT = 0

CCSDS_OMM_VERS = 2.0
CREATION_DATE  = 
ORIGINATOR     = 

OBJECT_NAME    = POISK
OBJECT_ID      = 2009-060A
CENTER_NAME    = EARTH
REF_FRAME      = TEME
TIME_SYSTEM    = UTC
MEAN_ELEMENT_THEORY = SGP/SGP4

EPOCH          = 2026-03-08T17:44:01.330656
MEAN_MOTION    = 15.48531098
ECCENTRICITY   = .00080508
INCLINATION    = 51.6319
RA_OF_ASC_NODE = 77.0569
ARG_OF_PERICENTER = 171.0721
MEAN_ANOMALY   = 189.0412

EPHEMERIS_TYPE = 0
CLASSIFICATION_TYPE = U
NORAD_CAT_ID   = 36086
ELEMENT_SET_NO = 999
REV_AT_EPOCH   = 55444
BSTAR          = .18226947E-3
MEAN_MOTION_DOT = .9449E-4
MEAN_MOTION_DDOT = 0

CCSDS_OMM_VERS = 2.0
CREATION_DATE  = 
ORIGINATOR     = 

OBJECT_NAME    = CSS (TIANHE)
OBJECT_ID      = 2021-035A
CENTER_NAME    = EARTH
REF_FRAME      = TEME
TIME_SYSTEM    = UTC
MEAN_ELEMENT_THEORY = SGP/SGP4

EPOCH          = 2026-03-08T19:40:20.057376
MEAN_MOTION    = 15.60610742
ECCENTRICITY   = .00069989
INCLINATION    = 41.4664
RA_OF_ASC_NODE = 213.4556
ARG_OF_PERICENTER = 268.3248
MEAN_ANOMALY   = 91.6789

EPHEMERIS_TYPE = 0
CLASSIFICATION_TYPE = U
NORAD_CAT_ID   = 48274
ELEMENT_SET_NO = 999
REV_AT_EPOCH   = 27747
BSTAR          = .34617107E-3
MEAN_MOTION_DOT = .29275E-3
MEAN_MOTION_DDOT = 0

CCSDS_OMM_VERS = 2.0
CREATION_DATE  = 
ORIGINATOR     = 

OBJECT_NAME    = ISS (NAUKA)
OBJECT_ID      = 2021-066A
CENTER_NAME    = EARTH
REF_FRAME      = TEME
TIME_SYSTEM    = UTC
MEAN_ELEMENT_THEORY = SGP/SGP4

EPOCH          = 2026-03-08T17:44:01.330656
MEAN_MOTION    = 15.48531098
ECCENTRICITY   = .00080508
INCLINATION    = 51.6319
RA_OF_ASC_NODE = 77.0569
ARG_OF_PERICENTER = 171.0721
MEAN_ANOMALY   = 189.0412

EPHEMERIS_TYPE = 0
CLASSIFICATION_TYPE = U
NORAD_CAT_ID   = 49044
ELEMENT_SET_NO = 999
REV_AT_EPOCH   = 55445
BSTAR          = .18226947E-3
MEAN_MOTION_DOT = .9449E-4
MEAN_MOTION_DDOT = 0

CCSDS_OMM_VERS = 2.0
CREATION_DATE  = 
ORIGINATOR     = 

OBJECT_NAME    = FREGAT DEB
OBJECT_ID      = 2011-037PF
CENTER_NAME    = EARTH
REF_FRAME      = TEME
TIME_SYSTEM    = UTC
MEAN_ELEMENT_THEORY = SGP/SGP4

EPOCH          = 2026-03-08T19:07:39.367488
MEAN_MOTION    = 12.40127316
ECCENTRICITY   = .09593307
INCLINATION    = 51.6513
RA_OF_ASC_NODE = 303.4311
ARG_OF_PERICENTER = 57.3276
MEAN_ANOMALY   = 311.6474

EPHEMERIS_TYPE = 0
CLASSIFICATION_TYPE = U
NORAD_CAT_ID   = 49271
ELEMENT_SET_NO = 999
REV_AT_EPOCH   = 21258
BSTAR          = .40130917E-1
MEAN_MOTION_DOT = .27839E-3
MEAN_MOTION_DDOT = 0

CCSDS_OMM_VERS = 2.0
CREATION_DATE  = 
ORIGINATOR     = 

OBJECT_NAME    = CSS (WENTIAN)
OBJECT_ID      = 2022-085A
CENTER_NAME    = EARTH
REF_FRAME      = TEME
TIME_SYSTEM    = UTC
MEAN_ELEMENT_THEORY = SGP/SGP4

EPOCH          = 2026-03-08T19:40:20.057376
MEAN_MOTION    = 15.60610742
ECCENTRICITY   = .00069989
INCLINATION    = 41.4664
RA_OF_ASC_NODE = 213.4556
ARG_OF_PERICENTER = 268.3248
MEAN_ANOMALY   = 91.6789

EPHEMERIS_TYPE = 0
CLASSIFICATION_TYPE = U
NORAD_CAT_ID   = 53239
ELEMENT_SET_NO = 999
REV_AT_EPOCH   = 27561
BSTAR          = .34617107E-3
MEAN_MOTION_DOT = .29275E-3
MEAN_MOTION_DDOT = 0

CCSDS_OMM_VERS = 2.0
CREATION_DATE  = 
ORIGINATOR     = 

OBJECT_NAME    = CSS (MENGTIAN)
OBJECT_ID      = 2022-143A
CENTER_NAME    = EARTH
REF_FRAME      = TEME
TIME_SYSTEM    = UTC
MEAN_ELEMENT_THEORY = SGP/SGP4

EPOCH          = 2026-03-08T19:40:20.057376
MEAN_MOTION    = 15.60610742
ECCENTRICITY   = .00069989
INCLINATION    = 41.4664
RA_OF_ASC_NODE = 213.4556
ARG_OF_PERICENTER = 268.3248
MEAN_ANOMALY   = 91.6789

EPHEMERIS_TYPE = 0
CLASSIFICATION_TYPE = U
NORAD_CAT_ID   = 54216
ELEMENT_SET_NO = 999
REV_AT_EPOCH   = 27558
BSTAR          = .34617107E-3
MEAN_MOTION_DOT = .29275E-3
MEAN_MOTION_DDOT = 0

CCSDS_OMM_VERS = 2.0
CREATION_DATE  = 
ORIGINATOR     = 

OBJECT_NAME    = PROGRESS-MS 31
OBJECT_ID      = 2025-146A
CENTER_NAME    = EARTH
REF_FRAME      = TEME
TIME_SYSTEM    = UTC
MEAN_ELEMENT_THEORY = SGP/SGP4

EPOCH          = 2026-03-08T17:44:01.330656
MEAN_MOTION    = 15.48531098
ECCENTRICITY   = .00080508
INCLINATION    = 51.6319
RA_OF_ASC_NODE = 77.0569
ARG_OF_PERICENTER = 171.0721
MEAN_ANOMALY   = 189.0412

EPHEMERIS_TYPE = 0
CLASSIFICATION_TYPE = U
NORAD_CAT_ID   = 64751
ELEMENT_SET_NO = 999
REV_AT_EPOCH   = 55446
BSTAR          = .18226947E-3
MEAN_MOTION_DOT = .9449E-4
MEAN_MOTION_DDOT = 0

CCSDS_OMM_VERS = 2.0
CREATION_DATE  = 
ORIGINATOR     = 

OBJECT_NAME    = TIANZHOU-9
OBJECT_ID      = 2025-149A
CENTER_NAME    = EARTH
REF_FRAME      = TEME
TIME_SYSTEM    = UTC
MEAN_ELEMENT_THEORY = SGP/SGP4

EPOCH          = 2026-03-08T19:40:20.057376
MEAN_MOTION    = 15.60610742
ECCENTRICITY   = .00069989
INCLINATION    = 41.4664
RA_OF_ASC_NODE = 213.4556
ARG_OF_PERICENTER = 268.3248
MEAN_ANOMALY   = 91.6789

EPHEMERIS_TYPE = 0
CLASSIFICATION_TYPE = U
NORAD_CAT_ID   = 64786
ELEMENT_SET_NO = 999
REV_AT_EPOCH   = 27559
BSTAR          = .34617107E-3
MEAN_MOTION_DOT = .29275E-3
MEAN_MOTION_DDOT = 0

CCSDS_OMM_VERS = 2.0
CREATION_DATE  = 
ORIGINATOR     = 

OBJECT_NAME    = PROGRESS-MS 32
OBJECT_ID      = 2025-204A
CENTER_NAME    = EARTH
REF_FRAME      = TEME
TIME_SYSTEM    = UTC
MEAN_ELEMENT_THEORY = SGP/SGP4

EPOCH          = 2026-03-08T17:44:01.330656
MEAN_MOTION    = 15.48531098
ECCENTRICITY   = .00080508
INCLINATION    = 51.6319
RA_OF_ASC_NODE = 77.0569
ARG_OF_PERICENTER = 171.0721
MEAN_ANOMALY   = 189.0412

EPHEMERIS_TYPE = 0
CLASSIFICATION_TYPE = U
NORAD_CAT_ID   = 65586
ELEMENT_SET_NO = 999
REV_AT_EPOCH   = 55450
BSTAR          = .18226947E-3
MEAN_MOTION_DOT = .9449E-4
MEAN_MOTION_DDOT = 0

CCSDS_OMM_VERS = 2.0
CREATION_DATE  = 
ORIGINATOR     = 

OBJECT_NAME    = CYGNUS NG-23
OBJECT_ID      = 2025-208A
CENTER_NAME    = EARTH
REF_FRAME      = TEME
TIME_SYSTEM    = UTC
MEAN_ELEMENT_THEORY = SGP/SGP4

EPOCH          = 2026-03-08T17:44:01.330656
MEAN_MOTION    = 15.48531098
ECCENTRICITY   = .00080508
INCLINATION    = 51.6319
RA_OF_ASC_NODE = 77.0569
ARG_OF_PERICENTER = 171.0721
MEAN_ANOMALY   = 189.0412

EPHEMERIS_TYPE = 0
CLASSIFICATION_TYPE = U
NORAD_CAT_ID   = 65616
ELEMENT_SET_NO = 999
REV_AT_EPOCH   = 55451
BSTAR          = .18226947E-3
MEAN_MOTION_DOT = .9449E-4
MEAN_MOTION_DDOT = 0

CCSDS_OMM_VERS = 2.0
CREATION_DATE  = 
ORIGINATOR     = 

OBJECT_NAME    = ISS OBJECT XK
OBJECT_ID      = 1998-067XK
CENTER_NAME    = EARTH
REF_FRAME      = TEME
TIME_SYSTEM    = UTC
MEAN_ELEMENT_THEORY = SGP/SGP4

EPOCH          = 2026-03-08T07:57:39.182400
MEAN_MOTION    = 16.21196240
ECCENTRICITY   = .00028436
INCLINATION    = 51.6118
RA_OF_ASC_NODE = 53.1246
ARG_OF_PERICENTER = 127.3723
MEAN_ANOMALY   = 232.7555

EPHEMERIS_TYPE = 0
CLASSIFICATION_TYPE = U
NORAD_CAT_ID   = 65731
ELEMENT_SET_NO = 999
REV_AT_EPOCH   = 2668
BSTAR          = .13172402E-2
MEAN_MOTION_DOT = .2881675E-1
MEAN_MOTION_DDOT = .11879038E-4

