ISS (ZARYA)             
1 25544U 98067A   26067.73890429  .00009449  00000+0  18227-3 0  9991
2 25544  51.6319  77.0569 0008050 171.0721 189.0412 15.48531098556187
POISK                   
1 36086U 09060A   26067.73890429  .00009449  00000+0  18227-3 0  9999
2 36086  51.6319  77.0569 0008050 171.0721 189.0412 15.48531098554447
CSS (TIANHE)            
1 48274U 21035A   26067.81967659  .00029275  00000+0  34617-3 0  9996
2 48274  41.4664 213.4556 0006998 268.3248  91.6789 15.60610742277472
ISS (NAUKA)             
1 49044U 21066A   26067.73890429  .00009449  00000+0  18227-3 0  9997
2 49044  51.6319  77.0569 0008050 171.0721 189.0412 15.48531098554456
FREGAT DEB              
1 49271U 11037PF  26067.79698342  .00027839  00000+0  40131-1 0  9992
2 49271  51.6513 303.4311 0959330  57.3276 311.6474 12.40127316212581
CSS (WENTIAN)           
1 53239U 22085A   26067.81967659  .00029275  00000+0  34617-3 0  9999
2 53239  41.4664 213.4556 0006998 268.3248  91.6789 15.60610742275613
CSS (MENGTIAN)          
1 54216U 22143A   26067.81967659  .00029275  00000+0  34617-3 0  9990
2 54216  41.4664 213.4556 0006998 268.3248  91.6789 15.60610742275585
PROGRESS-MS 31          
1 64751U 25146A   26067.73890429  .00009449  00000+0  18227-3 0  9992
2 64751  51.6319  77.0569 0008050 171.0721 189.0412 15.48531098554469
TIANZHOU-9              
1 64786U 25149A   26067.81967659  .00029275  00000+0  34617-3 0  9992
2 64786  41.4664 213.4556 0006998 268.3248  91.6789 15.60610742275599
PROGRESS-MS 32          
1 65586U 25204A   26067.73890429  .00009449  00000+0  18227-3 0  9994
2 65586  51.6319  77.0569 0008050 171.0721 189.0412 15.48531098554501
CYGNUS NG-23            
1 65616U 25208A   26067.73890429  .00009449  00000+0  18227-3 0  9992
2 65616  51.6319  77.0569 0008050 171.0721 189.0412 15.48531098554516
ISS OBJECT XK           
1 65731U 98067XK  26067.33170350  .02881675  11879-4  13172-2 0  9998
2 65731  51.6118  53.1246 0002843 127.3723 232.7555 16.21196240 26682
